{
    "links": {
        "self": "http://www.neowsapp.com/rest/v1/neo/3358520?api_key=iIulBulltgU6a56xZRHN4H3l9WmuAYTsLGpBGhQ2"
    },
    "id": "3358520",
    "neo_reference_id": "3358520",
    "name": "(2006 VE13)",
    "designation": "2006 VE13",
    "nasa_jpl_url": "http://ssd.jpl.nasa.gov/sbdb.cgi?sstr=3358520",
    "absolute_magnitude_h": 26.6,
    "estimated_diameter": {
        "kilometers": {
            "estimated_diameter_min": 0.0127219879,
            "estimated_diameter_max": 0.0284472297
        },
        "meters": {
            "estimated_diameter_min": 12.7219878539,
            "estimated_diameter_max": 28.4472296503
        },
        "miles": {
            "estimated_diameter_min": 0.0079050743,
            "estimated_diameter_max": 0.0176762835
        },
        "feet": {
            "estimated_diameter_min": 41.7388066307,
            "estimated_diameter_max": 93.330808926
        }
    },
    "is_potentially_hazardous_asteroid": false,
    "close_approach_data": [
        {
            "close_approach_date": "1922-05-29",
            "close_approach_date_full": "1922-May-29 16:59",
            "epoch_date_close_approach": -1501916460000,
            "relative_velocity": {
                "kilometers_per_second": "12.8321111977",
                "kilometers_per_hour": "46195.6003116509",
                "miles_per_hour": "28704.1495380922"
            },
            "miss_distance": {
                "astronomical": "0.0887191306",
                "lunar": "34.5117418034",
                "kilometers": "13272192.966011822",
                "miles": "8246958.2925422636"
            },
            "orbiting_body": "Mars"
        },
        {
            "close_approach_date": "2006-11-11",
            "close_approach_date_full": "2006-Nov-11 09:28",
            "epoch_date_close_approach": 1163237280000,
            "relative_velocity": {
                "kilometers_per_second": "12.2802538703",
                "kilometers_per_hour": "44208.9139329832",
                "miles_per_hour": "27469.6998824139"
            },
            "miss_distance": {
                "astronomical": "0.0092338413",
                "lunar": "3.5919642657",
                "kilometers": "1381362.990398031",
                "miles": "858339.1605175878"
            },
            "orbiting_body": "Earth"
        }
    ],
    "orbital_data": {
        "orbit_id": "7",
        "orbit_determination_date": "2017-04-06 09:07:39",
        "first_observation_date": "2006-11-13",
        "last_observation_date": "2006-11-16",
        "data_arc_in_days": 3,
        "observations_used": 31,
        "orbit_uncertainty": "7",
        "minimum_orbit_intersection": ".00535188",
        "jupiter_tisserand_invariant": "3.787",
        "epoch_osculation": "2459000.5",
        "eccentricity": ".5362336766199614",
        "semi_major_axis": "1.874682426731748",
        "inclination": "3.831630687725204",
        "ascending_node_longitude": "52.54022351221639",
        "orbital_period": "937.5403960552881",
        "perihelion_distance": ".8694145765505514",
        "perihelion_argument": "305.9007730395357",
        "aphelion_distance": "2.879950276912945",
        "perihelion_time": "2458702.404354906578",
        "mean_anomaly": "114.4637955710055",
        "mean_motion": ".3839834544886856",
        "equinox": "J2000",
        "orbit_class": {
            "orbit_class_type": "APO",
            "orbit_class_description": "Near-Earth asteroid orbits which cross the Earth’s orbit similar to that of 1862 Apollo",
            "orbit_class_range": "a (semi-major axis) > 1.0 AU; q (perihelion) < 1.017 AU"
        }
    },
    "is_sentry_object": false
}